NORAD_CAT_ID,OBJECT_NAME,OBJECT_TYPE,EPOCH,MEAN_MOTION,ECCENTRICITY,INCLINATION,RA_OF_ASC_NODE,ARG_OF_PERICENTER,MEAN_ANOMALY,BSTAR,MEAN_MOTION_DOT,MEAN_MOTION_DDOT,TLE_LINE0,TLE_LINE1,TLE_LINE2,SEMIMAJOR_AXIS,PERIOD,APOGEE,PERIGEE,DECAYED
52622.0,STARLINK-4008,PAYLOAD,2022-05-29 14:00:01,15.66974783,0.0001257,53.2174,6.7318,107.9385,71.9367,-0.0084606,-0.00829453,0.0,0 STARLINK-4008,1 52622U 22052AA  22149.58334491 -.00829453  00000-0 -84606-2 0  9992,2 52622  53.2174   6.7318 0001257 107.9385  71.9367 15.66974783  1307,6745.7019999999975,91.897,368.415,366.719,0.0
52622.0,STARLINK-4008,PAYLOAD,2022-05-29 20:53:28,15.67131478,0.0001344,53.2151,5.3067,117.4439,242.6716,-0.0045723,-0.00471394,0.0,0 STARLINK-4008,1 52622U 22052AA  22149.87046942 -.00471394  00000-0 -45723-2 0  9999,2 52622  53.2151   5.3067 0001344 117.4439 242.6716 15.67131478  2371,6745.253000000002,91.888,368.024,366.211,0.0
52622.0,STARLINK-4008,PAYLOAD,2022-05-30 04:00:00,15.65931696,0.0001345,53.2172,3.8802,121.433,109.8616,-0.0088595,-0.00832221,0.0,0 STARLINK-4008,1 52622U 22052AA  22150.16667824 -.00832221  00000-0 -88595-2 0  9995,2 52622  53.2172   3.8802 0001345 121.4330 109.8616 15.65931696  2797,6748.698,91.958,371.47,369.655,0.0
52622.0,STARLINK-4008,PAYLOAD,2022-05-30 14:00:01,15.65182492,0.0001118,53.2177,1.8434,112.7353,308.2311,-0.0090566,-0.00825978,0.0,0 STARLINK-4008,1 52622U 22052AA  22150.58334491 -.00825978  00000-0 -90566-2 0  9994,2 52622  53.2177   1.8434 0001118 112.7353 308.2311 15.65182492  1302,6750.851,92.002,373.471,371.961,0.0
52622.0,STARLINK-4008,PAYLOAD,2022-05-30 22:00:00,15.64587633,0.00012,53.2176,0.2189,89.0316,50.8623,-0.0093151,-0.00829201,0.0,0 STARLINK-4008,1 52622U 22052AA  22150.91667824 -.00829201  00000-0 -93151-2 0  9996,2 52622  53.2176   0.2189 0001200  89.0316  50.8623 15.64587633  1309,6752.562,92.037,375.237,373.617,0.0
52622.0,STARLINK-4008,PAYLOAD,2022-05-31 03:32:14,15.65158851,0.0001416999999999,53.2148,359.0680000000001,175.4161,184.6869,-0.004348,-0.0041671999999999,0.0,0 STARLINK-4008,1 52622U 22052AA  22151.14738915 -.00416720  00000-0 -43480-2 0  9990,2 52622  53.2148 359.0680 0001417 175.4161 184.6869 15.65158851  2943,6750.919,92.003,373.741,371.827,0.0
52622.0,STARLINK-4008,PAYLOAD,2022-05-31 05:04:16,15.65005777,0.0002033,53.2149,358.75699999999995,172.2492,187.8556,-0.0044514,-0.00423717,0.0,0 STARLINK-4008,1 52622U 22052AA  22151.21130148 -.00423717  00000-0 -44514-2 0  9995,2 52622  53.2149 358.7570 0002033 172.2492 187.8556 15.65005777  2581,6751.359,92.012,374.597,371.852,0.0
52622.0,STARLINK-4008,PAYLOAD,2022-05-31 12:00:00,15.63543233,0.0001252,53.2172,357.3736,102.9822,83.314,-0.009714,-0.00841388,0.0,0 STARLINK-4008,1 52622U 22052AA  22151.50001157 -.00841388  00000-0 -97140-2 0  9995,2 52622  53.2172 357.3736 0001252 102.9822  83.3140 15.63543233  3004,6755.569,92.099,378.279,376.588,0.0
52622.0,STARLINK-4008,PAYLOAD,2022-05-31 18:52:42,15.63971193,0.0001968,53.2153,355.9533,32.9559,327.158,-0.0044595,-0.00408127,0.0,0 STARLINK-4008,1 52622U 22052AA  22151.78660651 -.00408127  00000-0 -44595-2 0  9991,2 52622  53.2153 355.9533 0001968  32.9559 327.1580 15.63971193  3046,6754.3359999999975,92.073,377.53,374.872,0.0
52622.0,STARLINK-4008,PAYLOAD,2022-05-31 22:00:00,15.62797933,0.0001076,53.2175,355.3479,103.473,268.906,-0.010014,-0.00842099,0.0,0 STARLINK-4008,1 52622U 22052AA  22151.91667824 -.00842099  00000-0 -10014-1 0  9993,2 52622  53.2175 355.3479 0001076 103.4730 268.9060 15.62797933  1307,6757.715999999999,92.142,380.3080000000001,378.854,0.0
52622.0,STARLINK-4008,PAYLOAD,2022-06-01 02:33:08,15.63434342,5.18e-05,53.2152,354.3959,131.9353,228.1707,-0.0046106,-0.00412731,0.0,0 STARLINK-4008,1 52622U 22052AA  22152.10635411 -.00412731  00000-0 -46106-2 0  9990,2 52622  53.2152 354.3959 0000518 131.9353 228.1707 15.63434342  3098,6755.882,92.105,378.097,377.397,0.0
52622.0,STARLINK-4008,PAYLOAD,2022-06-01 12:00:00,15.61751147,0.0001055,53.2174,352.5101,103.1732,311.8441,-0.010378,-0.00837972,0.0,0 STARLINK-4008,1 52622U 22052AA  22152.50001157 -.00837972  00000-0 -10378-1 0  9997,2 52622  53.2174 352.5101 0001055 103.1732 311.8441 15.61751147  3166,6760.736,92.204,383.314,381.887,0.0
52622.0,STARLINK-4008,PAYLOAD,2022-06-01 20:00:01,15.61155838,0.0001190999999999,53.2174,350.8938,87.5165,42.3052,-0.010648,-0.00839924,0.0,0 STARLINK-4008,1 52622U 22052AA  22152.83334491 -.00839924  00000-0 -10648-1 0  9992,2 52622  53.2174 350.8938 0001191  87.5165  42.3052 15.61155838  1304,6762.454000000002,92.239,385.125,383.514,0.0
52622.0,STARLINK-4008,PAYLOAD,2022-06-02 18:30:23,15.60676047,0.0001736,53.2146,346.3227,37.3512,322.7623,-0.0046164,-0.00373006,0.0,0 STARLINK-4008,1 52622U 22052AA  22153.77110248 -.00373006  00000-0 -46164-2 0  9995,2 52622  53.2146 346.3227 0001736  37.3512 322.7623 15.60676047  3353,6763.84,92.268,386.879,384.531,0.0
52622.0,STARLINK-4008,PAYLOAD,2022-06-03 02:11:56,15.60054721,0.0002078,53.2155,344.7705,124.2415,235.8797,-0.0049435,-0.0038923,0.0,0 STARLINK-4008,1 52622U 22052AA  22154.09162052 -.00389230  00000-0 -49435-2 0  9991,2 52622  53.2155 344.7705 0002078 124.2415 235.8797 15.60054721  3405,6765.636,92.304,388.907,386.095,0.0
52622.0,STARLINK-4008,PAYLOAD,2022-06-03 03:44:15,15.599335,0.0002337,53.2165,344.4601,136.4802,223.6398,-0.0049613,-0.00388859,0.0,0 STARLINK-4008,1 52622U 22052AA  22154.15573782 -.00388859  00000-0 -49613-2 0  9998,2 52622  53.2165 344.4601 0002337 136.4802 223.6398 15.59933500  3413,6765.986,92.312,389.4330000000001,386.27,0.0
52622.0,STARLINK-4008,PAYLOAD,2022-06-03 14:30:40,15.59204463,0.0001662,53.2145,342.2951,104.6987,255.4212,-0.0049581,-0.00378367,0.0,0 STARLINK-4008,1 52622U 22052AA  22154.60463276 -.00378367  00000-0 -49581-2 0  9991,2 52622  53.2145 342.2951 0001662 104.6987 255.4212 15.59204463  3480,6768.095,92.355,391.085,388.835,0.0
52622.0,STARLINK-4008,PAYLOAD,2022-06-04 05:53:45,15.59096841,0.0001266,53.2151,339.1886,321.0292,39.063,-0.0026073,-0.00202705,0.0,0 STARLINK-4008,1 52622U 22052AA  22155.24566251 -.00202705  00000-0 -26073-2 0  9992,2 52622  53.2151 339.1886 0001266 321.0292  39.0630 15.59096841  3583,6768.406999999997,92.361,391.129,389.415,0.0
52622.0,STARLINK-4008,PAYLOAD,2022-06-05 20:00:01,15.53993626,0.0001284999999999,53.2176,331.5872,93.0739,158.487,-0.013894,-0.00836558,0.0,0 STARLINK-4008,1 52622U 22052AA  22156.83334491 -.00836558  00000-0 -13894-1 0  9992,2 52622  53.2176 331.5872 0001285  93.0739 158.4870 15.53993626  3835,6783.217,92.664,405.953,404.21,0.0
52622.0,STARLINK-4008,PAYLOAD,2022-06-05 22:00:00,15.53842867,0.0001058,53.2175,331.1875,92.5922,265.4073,-0.013926,-0.00834037,0.0,0 STARLINK-4008,1 52622U 22052AA  22156.91667824 -.00834037  00000-0 -13926-1 0  9996,2 52622  53.2175 331.1875 0001058  92.5922 265.4073 15.53842867  1303,6783.655,92.673,406.23800000000006,404.80300000000005,0.0
52622.0,STARLINK-4008,PAYLOAD,2022-06-06 14:00:01,15.52651011,0.0001197,53.2175,327.9890000000001,79.5759,48.316,-0.014594,-0.00836619,0.0,0 STARLINK-4008,1 52622U 22052AA  22157.58334491 -.00836619  00000-0 -14594-1 0  9991,2 52622  53.2175 327.9890 0001197  79.5759  48.3160 15.52651011  1303,6787.126,92.745,409.804,408.179,0.0
52622.0,STARLINK-4008,PAYLOAD,2022-06-06 20:00:01,15.52204287,0.0001177,53.2174,326.7929,100.7601,345.1003,-0.014852,-0.00837622,0.0,0 STARLINK-4008,1 52622U 22052AA  22157.83334491 -.00837622  00000-0 -14852-1 0  9991,2 52622  53.2174 326.7929 0001177 100.7601 345.1003 15.52204287  3993,6788.429,92.771,411.093,409.495,0.0
52622.0,STARLINK-4008,PAYLOAD,2022-06-06 22:00:00,15.52049264,0.0001274999999999,53.2174,326.3943,102.5871,89.1758,-0.01475,-0.00828096,0.0,0 STARLINK-4008,1 52622U 22052AA  22157.91667824 -.00828096  00000-0 -14750-1 0  9991,2 52622  53.2174 326.3943 0001275 102.5871  89.1758 15.52049264  1300,6788.880999999999,92.781,411.611,409.88,0.0
52622.0,STARLINK-4008,PAYLOAD,2022-06-07 14:00:01,15.50862059,0.0001144,53.2177,323.204,91.1221,226.2293,-0.015619,-0.00839129,0.0,0 STARLINK-4008,1 52622U 22052AA  22158.58334491 -.00839129  00000-0 -15619-1 0  9990,2 52622  53.2177 323.2040 0001144  91.1221 226.2293 15.50862059  1305,6792.345,92.852,414.987,413.4330000000001,0.0
52622.0,STARLINK-4008,PAYLOAD,2022-06-07 20:00:01,15.50306337,0.0001321,53.2177,322.0102,90.5577,183.2353,-0.010267,-0.00552064,0.0,0 STARLINK-4008,1 52622U 22052AA  22158.83335648 -.00552064  00000-0 -10267-1 0  9997,2 52622  53.2177 322.0102 0001321  90.5577 183.2353 15.50306337  4141,6793.968000000003,92.885,416.73,414.935,0.0
52622.0,STARLINK-4008,PAYLOAD,2022-06-07 22:00:00,15.50095527,0.0001134,53.2175,321.6121,96.5185,282.5802,-0.0055267,-0.00304496,0.0,0 STARLINK-4008,1 52622U 22052AA  22158.91667824 -.00304496  00000-0 -55267-2 0  9994,2 52622  53.2175 321.6121 0001134  96.5185 282.5802 15.50095527  1301,6794.584,92.898,417.219,415.67800000000005,0.0
52622.0,STARLINK-4008,PAYLOAD,2022-06-08 04:00:01,15.49887134,0.0001192,53.2176,320.4157,96.454,238.5099,-6.29e-05,-4.02e-05,0.0,0 STARLINK-4008,1 52622U 22052AA  22159.16668981 -.00004020  00000-0 -62900-4 0  9991,2 52622  53.2176 320.4157 0001192  96.4540 238.5099 15.49887134  4208,6795.193,92.91,417.86800000000005,416.24800000000016,0.0
52622.0,STARLINK-4008,PAYLOAD,2022-06-08 12:00:00,15.49853348,0.0001293,53.2164,318.8124,91.25,304.5096,0.0011932,0.00067781,0.0,0 STARLINK-4008,1 52622U 22052AA  22159.50001157  .00067781  00000-0  11932-2 0  9993,2 52622  53.2164 318.8124 0001293  91.2500 304.5096 15.49853348  4257,6795.292,92.912,418.035,416.278,0.0
52622.0,STARLINK-4008,PAYLOAD,2022-06-08 14:00:01,15.49890405,0.0001262999999999,53.2163,318.4148,88.463,52.5095,0.00011975,6.352e-05,0.0,0 STARLINK-4008,1 52622U 22052AA  22159.58334491  .00006352  00000-0  11975-3 0  9996,2 52622  53.2163 318.4148 0001263  88.4630  52.5095 15.49890405  1304,6795.183000000001,92.91,417.907,416.19,0.0
